     2              NAVIGATION DATA                         RINEX VERSION / TYPE
CCRINEXN V1.6.0 UX  CDDIS               11-SEP-13 15:33     PGM / RUN BY / DATE 
IGS BROADCAST EPHEMERIS FILE                                COMMENT             
    0.1211D-07  0.1490D-07 -0.5960D-07 -0.1192D-06          ION ALPHA           
    0.9626D+05  0.8192D+05 -0.1966D+06 -0.3932D+06          ION BETA            
   -0.931322574616D-09-0.799360577730D-14   319488     1757 DELTA-UTC: A0,A1,T,W
    16                                                      LEAP SECONDS        
                                                            END OF HEADER       
31 13  9 10  8  0  0.0 0.325518194586D-03 0.909494701773D-12 0.000000000000D+00
    0.990000000000D+02-0.607500000000D+02 0.422839041515D-08 0.171340101355D+01
   -0.304915010929D-05 0.790473574307D-02 0.533275306225D-05 0.515366809082D+04
    0.201600000000D+06 0.109896063805D-06-0.177362116438D+00-0.335276126862D-07
    0.980200289482D+00 0.282343750000D+03-0.733888768087D+00-0.802390565645D-08
   -0.409302763389D-09 0.100000000000D+01 0.175700000000D+04 0.000000000000D+00
    0.280000000000D+01 0.000000000000D+00-0.130385160446D-07 0.990000000000D+02
    0.194418000000D+06 0.400000000000D+01 0.000000000000D+00 0.000000000000D+00
32 13  9 10  8  0  0.0-0.549752265215D-03 0.261479726760D-11 0.000000000000D+00
    0.370000000000D+02 0.739375000000D+02 0.458090509880D-08 0.217707815943D+01
    0.373832881451D-05 0.116195364390D-01 0.106394290924D-04 0.515360659218D+04
    0.201600000000D+06 0.577419996262D-07-0.221247093736D+01 0.221654772759D-06
    0.948797464080D+00 0.165343750000D+03-0.301264940391D+00-0.798104672835D-08
   -0.546451333320D-10 0.100000000000D+01 0.175700000000D+04 0.000000000000D+00
    0.200000000000D+01 0.000000000000D+00-0.279396772385D-08 0.370000000000D+02
    0.194418000000D+06 0.400000000000D+01 0.000000000000D+00 0.000000000000D+00
16 13  9 10  9 59 28.0-0.247006770223D-03 0.795807864051D-12 0.000000000000D+00
    0.410000000000D+02-0.266250000000D+02 0.382765943738D-08 0.219388382292D+00
   -0.145472586155D-05 0.706072687171D-02 0.985525548458D-05 0.515371398926D+04
    0.208768000000D+06 0.894069671631D-07 0.895424264323D+00 0.260770320892D-07
    0.985807236086D+00 0.201156250000D+03 0.138335962019D+00-0.778282418587D-08
    0.835749098019D-10 0.100000000000D+01 0.175700000000D+04 0.000000000000D+00
    0.200000000000D+01 0.000000000000D+00-0.977888703346D-08 0.410000000000D+02
    0.204738000000D+06 0.400000000000D+01 0.000000000000D+00 0.000000000000D+00
18 13  9 10  9 59 28.0 0.273337122053D-03 0.204636307899D-11 0.000000000000D+00
    0.110000000000D+02 0.399687500000D+02 0.510449833713D-08 0.768499431978D+00
    0.213086605072D-05 0.145944901742D-01 0.114981085062D-04 0.515363844490D+04
    0.208768000000D+06-0.275671482086D-06-0.230110937200D+01 0.372529029846D-08
    0.926927011419D+00 0.140937500000D+03-0.207874090708D+01-0.848178187169D-08
   -0.207865801302D-09 0.000000000000D+00 0.175700000000D+04 0.000000000000D+00
    0.200000000000D+01 0.000000000000D+00-0.107102096081D-07 0.110000000000D+02
    0.204840000000D+06 0.400000000000D+01 0.000000000000D+00 0.000000000000D+00
11 13  9 10  9 59 44.0-0.418395735323D-03-0.341060513165D-11 0.000000000000D+00
    0.190000000000D+02-0.422500000000D+02 0.630311969309D-08 0.294243587242D+01
   -0.216439366341D-05 0.145390399266D-01 0.508874654770D-05 0.515368717766D+04
    0.208784000000D+06 0.128522515297D-06 0.263554746470D+01-0.156462192535D-06
    0.889552311573D+00 0.240218750000D+03 0.120889859027D+01-0.878000857974D-08
   -0.208580116771D-09 0.100000000000D+01 0.175700000000D+04 0.000000000000D+00
    0.200000000000D+01 0.000000000000D+00-0.116415321827D-07 0.190000000000D+02
    0.201618000000D+06 0.400000000000D+01 0.000000000000D+00 0.000000000000D+00
30 13  9 10  9 59 44.0 0.400841236115D-05 0.318323145621D-11 0.000000000000D+00
    0.110000000000D+02 0.700312500000D+02 0.455518974194D-08 0.116520055576D+01
    0.348873436451D-05 0.896187569015D-02 0.456720590591D-05 0.515367670822D+04
    0.208784000000D+06-0.130385160446D-06-0.114443502757D+01-0.117346644402D-06
    0.975690196430D+00 0.301968750000D+03-0.178203911246D+01-0.839070664947D-08
    0.170007081477D-09 0.000000000000D+00 0.175700000000D+04 0.000000000000D+00
    0.200000000000D+01 0.630000000000D+02-0.372529029846D-08 0.110000000000D+02
    0.208290000000D+06 0.400000000000D+01 0.000000000000D+00 0.000000000000D+00
31 13  9 10  9 59 44.0 0.325523782521D-03 0.909494701773D-12 0.000000000000D+00
    0.150000000000D+02-0.587500000000D+02 0.432303721471D-08 0.276138123811D+01
   -0.288896262646D-05 0.790583353955D-02 0.497326254845D-05 0.515366528892D+04
    0.208784000000D+06 0.875443220139D-07-0.177420622921D+00 0.176951289177D-06
    0.980197872742D+00 0.293406250000D+03-0.734018997055D+00-0.802033407911D-08
   -0.242867259253D-09 0.100000000000D+01 0.175700000000D+04 0.000000000000D+00
    0.200000000000D+01 0.000000000000D+00-0.130385160446D-07 0.150000000000D+02
    0.201618000000D+06 0.400000000000D+01 0.000000000000D+00 0.000000000000D+00
 1 13  9 10 10  0  0.0 0.731577165425D-04 0.420641299570D-11 0.000000000000D+00
    0.820000000000D+02-0.390625000000D+02 0.458876256895D-08-0.299032956183D+01
   -0.200979411602D-05 0.232075457461D-02 0.781379640102D-05 0.515368948174D+04
    0.208800000000D+06-0.223517417908D-07 0.294020854893D+01-0.372529029846D-07
    0.960769687205D+00 0.229687500000D+03 0.365775778749D+00-0.809390857235D-08
   -0.302512600864D-09 0.100000000000D+01 0.175700000000D+04 0.000000000000D+00
    0.200000000000D+01 0.000000000000D+00 0.838190317154D-08 0.820000000000D+02
    0.201618000000D+06 0.400000000000D+01 0.000000000000D+00 0.000000000000D+00
 2 13  9 10 10  0  0.0 0.450644176453D-03 0.181898940355D-11 0.000000000000D+00
    0.670000000000D+02-0.412812500000D+02 0.506735393277D-08-0.217588382287D+01
   -0.208802521229D-05 0.125672187423D-01 0.749900937080D-05 0.515371888733D+04
    0.208800000000D+06 0.614672899246D-07 0.291626893762D+01-0.143423676491D-06
    0.939268953442D+00 0.222093750000D+03-0.256109392995D+01-0.817212611614D-08
   -0.185722021782D-09 0.000000000000D+00 0.175700000000D+04 0.000000000000D+00
    0.200000000000D+01 0.000000000000D+00-0.172294676304D-07 0.670000000000D+02
    0.201600000000D+06 0.400000000000D+01 0.000000000000D+00 0.000000000000D+00
 3 13  9 10 10  0  0.0 0.257560051978D-03 0.500222085975D-11 0.000000000000D+00
    0.790000000000D+02 0.182812500000D+02 0.514092842602D-08-0.201715818557D+01
    0.105798244476D-05 0.166941921925D-01 0.651925802231D-05 0.515372151375D+04
    0.208800000000D+06 0.268220901489D-06 0.174491215633D+01 0.465661287308D-07
    0.935257163935D+00 0.237406250000D+03 0.133122550035D+01-0.820498462769D-08
    0.344300055765D-09 0.100000000000D+01 0.175700000000D+04 0.000000000000D+00
    0.280000000000D+01 0.000000000000D+00-0.465661287308D-08 0.790000000000D+02
    0.201618000000D+06 0.400000000000D+01 0.000000000000D+00 0.000000000000D+00
 4 13  9 10 10  0  0.0 0.393949449062D-06 0.682121026330D-12 0.000000000000D+00
    0.550000000000D+02-0.377812500000D+02 0.521986028528D-08 0.108354101278D+01
   -0.186823308468D-05 0.105458298931D-01 0.803731381893D-05 0.515359708023D+04
    0.208800000000D+06-0.154599547386D-06 0.293259052445D+01-0.558793544769D-08
    0.938308705718D+00 0.219187500000D+03 0.101773633164D+01-0.848642492223D-08
   -0.451090218290D-09 0.000000000000D+00 0.175700000000D+04 0.000000000000D+00
    0.200000000000D+01 0.000000000000D+00-0.605359673500D-08 0.550000000000D+02
    0.201600000000D+06 0.400000000000D+01 0.000000000000D+00 0.000000000000D+00
 5 13  9 10 10  0  0.0-0.399659853429D-03 0.113686837722D-12 0.000000000000D+00
    0.880000000000D+02 0.543750000000D+02 0.453768901296D-08 0.103502268953D+00
    0.287964940071D-05 0.324661529157D-02 0.112559646368D-04 0.515370447731D+04
    0.208800000000D+06 0.633299350738D-07-0.230139984755D+01-0.186264514923D-07
    0.948338589103D+00 0.153718750000D+03 0.261540039244D+00-0.805747848346D-08
   -0.614311302817D-10 0.000000000000D+00 0.175700000000D+04 0.000000000000D+00
    0.200000000000D+01 0.000000000000D+00-0.977888703346D-08 0.880000000000D+02
    0.201600000000D+06 0.400000000000D+01 0.000000000000D+00 0.000000000000D+00
 6 13  9 10 10  0  0.0 0.465228222311D-04 0.190993887372D-10 0.000000000000D+00
    0.180000000000D+02 0.840625000000D+01 0.517128683342D-08-0.198086203086D+00
    0.331550836563D-06 0.810340722091D-02 0.651553273201D-05 0.515367745018D+04
    0.208800000000D+06 0.968575477600D-07 0.182521151319D+01-0.838190317154D-07
    0.941841089656D+00 0.245875000000D+03-0.232790882869D+00-0.852856953487D-08
    0.236795577772D-09 0.100000000000D+01 0.175700000000D+04 0.000000000000D+00
    0.200000000000D+01 0.000000000000D+00-0.512227416039D-08 0.180000000000D+02
    0.208770000000D+06 0.400000000000D+01 0.000000000000D+00 0.000000000000D+00
 7 13  9 10 10  0  0.0 0.257026869804D-03 0.420641299570D-11 0.000000000000D+00
    0.980000000000D+02-0.641250000000D+02 0.438803992233D-08 0.271897192032D+01
   -0.325031578541D-05 0.691078556702D-02 0.574067234993D-05 0.515367179489D+04
    0.208800000000D+06-0.173225998878D-06-0.182408446501D+00-0.763684511185D-07
    0.975216134901D+00 0.278812500000D+03-0.288651646668D+01-0.805890711440D-08
   -0.216794744657D-09 0.100000000000D+01 0.175700000000D+04 0.000000000000D+00
    0.200000000000D+01 0.000000000000D+00-0.107102096081D-07 0.980000000000D+02
    0.208698000000D+06 0.400000000000D+01 0.000000000000D+00 0.000000000000D+00
